0 MOLNIYA 3-7
1 09941U 77032A   13280.84227022 -.00000324  00000-0  00000+0 0   667
2 09941 063.6198 052.8670 7249520 246.4982 346.1372 02.00751846267059
0 MOLNIYA 3-7
1 09941U 77032A   13289.86924297 -.00000462  00000-0  00000+0 0   681
2 09941 063.6033 051.6158 7253967 246.4924 029.9083 02.00743794267240
0 MOLNIYA 3-7
1 09941U 77032A   13292.79754111 -.00000558  00000-0  00000+0 0   690
2 09941 063.5986 051.2098 7255457 246.4897 346.1265 02.00740538267294
0 MOLNIYA 3-7
1 09941U 77032A   13294.79034529 -.00000563  00000-0  00000+0 0   704
2 09941 063.5949 050.9332 7256503 246.4884 346.2671 02.00738037267337
